#dP2018  9 23  0  0  0.00000000      96 __u+U ITR00 FIT  IAC
## 2020      0.00000000   900.00000000 58384 0.0000000000000
+   89   C01C02C03C04C05C06C08C09C10C11C12C13C14E01E02E03E04
+        E05E07E08E09E11E12E14E18E19E21E24E25E26E27E30G01G02
+        G03G05G06G07G08G09G10G11G12G13G14G15G16G17G18G19G20
+        G21G22G23G24G25G26G27G28G29G30G31G32J01J02J03R01R02
+        R03R04R05R07R08R09R10R11R13R14R15R16R17R18R19R20R21
+        R22R23R24R26  0  0  0  0  0  0  0  0  0  0  0  0  0
++        12 11 12 12 12  9  8  8  8  8  8  8  8  6  6  6  6
++         6  6  6  6  7  7  6  6  6  7  7  7  6  6  6  3  3
++         3  3  3  3  3  3  3  3  3  3  3  3  3  3  3  3  3
++         3  3  3  3  3  3  3  3  3  3  3  3 10 10 10  5  5
++         5  5  5  5  5  5  5  5  5  5  6  6  5  5  5  5  5
++         5  6  6  8  0  0  0  0  0  0  0  0  0  0  0  0  0
%c M  cc GPS ccc cccc cccc cccc cccc ccccc ccccc ccccc ccccc
%c cc cc ccc ccc cccc cccc cccc cccc ccccc ccccc ccccc ccccc
%f  0.0000000  0.000000000  0.00000000000  0.000000000000000
%f  0.0000000  0.000000000  0.00000000000  0.000000000000000
%i    0    0    0    0      0      0      0      0         0
%i    0    0    0    0      0      0      0      0         0
/* INFORMATION & ANALYSIS CENTER (IAC) OF MCC   (RAPID DATA)
/* S/V CLOCKS ARE ALIGNED TO GPS & GLONASS TIME RESPECTIVELY
/* USING THE BROADCAST EPHEMERIS                            
/* PCV:IGS14_2000 OL/AL:FES2004  NONE     YN ORB:CoN CLK:CoN
*  2018 09 23 15 45  0.00000000
PC01 -32312.168736  27116.100890    174.682347    -14.672300
PC02   4315.264493  41921.545329   -813.995298     24.455091
PC03 -14705.337506  39494.487759   -601.590992   -379.386333
PC04 -39666.820111  14385.894198      2.709595   -290.401608
PC05  21940.187590  35988.775394   -912.312856   -200.602110
PC06 -22474.724929  34725.498828   7443.061458    320.272277
PC08 -18463.962122  17813.625153 -33466.401608    537.003243
PC09 -11113.546051  34519.607192  21426.550505    139.023732
PC10   3280.939435  39064.572300  16174.560721    -96.601502
PC11  24025.894786   1139.689194 -14024.709816   -693.426548
PC12   7891.346271  13408.486435 -23105.752247    624.254278
PC13  -1237.977975  23543.954295 -34943.937503   -291.897253
PC14  14666.790828   7969.824290  22411.149935    455.788770
PE01   3411.723999 -21179.152902 -20382.407827   -441.097980
PE02  -3383.020560  21214.214408  20371.619389     28.546226
PE03 -13797.216409  26108.932362   2150.633465    -80.379332
PE04  -1488.249981 -23088.124905 -18458.332203   -123.337622
PE05 -21077.514701  13833.978065 -15509.173820    188.902812
PE07  16003.699653   6501.348293  24044.724800    -43.672439
PE08   1630.311079  23009.497711  18561.365729   6496.955418
PE09 -15935.820723  -6273.875480 -24136.870847   6668.242866
PE11 -26861.941061  -6958.855238  10282.970884   5364.632415
PE12  -9673.400642 -15591.466321  23222.893235   5117.820390
PE14  23119.767951   6163.987265 -21584.662886   6515.176822
PE18 -20973.602085   1595.545240  11841.266548   5884.877983
PE19  14894.152802 -25580.205924   -290.744690    -11.979609
PE21  16783.226947  -2597.108760 -24240.150130   -496.075510
PE24 -19952.070559 -16664.890036  14159.975783   6477.802148
PE25 -16787.102369   2603.805405  24250.484013   2033.713087
PE26  27919.802454  -5370.858102   8209.547062   5444.374601
PE27  19925.205200  17171.485883 -13574.198826    625.240341
PE30  11668.742564  26851.651511   4363.994087   5489.549765
PG01  21922.519609  14107.073764  -6026.611586    -91.660896
PG02  -4147.044553 -17098.227743  20531.573555    -10.108844
PG03  13233.888514  16401.244497  16172.151772    140.106321
PG05  -3041.880804 -26253.872375    821.148567     -1.665503
PG06  12730.836000 -10148.165508  21017.739524    359.622678
PG07  24909.956196   4792.818751  -8389.107046    119.048265
PG08   5611.383245  14328.395758 -21585.173542   -116.140707
PG09  21505.629412  -2731.099361  15316.054677    504.845404
PG10 -11809.964117  13952.399444 -19165.974125    180.023301
PG11  19351.495123  11155.728184 -14776.283436   -715.734738
PG12  -9553.687564 -21209.011505  12793.276691    304.850908
PG13   3385.314851 -17559.059743 -19741.606620    -88.578134
PG14 -16453.637197  18435.145888   9800.521232    -97.152375
PG15 -11241.632127 -11434.054608 -21409.952420   -345.095818
PG16   -775.159038  26194.528026   2408.241994      7.633532
PG17  21760.238471 -15105.076595    751.047200    -52.387023
PG18  15245.522160  16808.950845 -14404.821987     60.516400
PG19  17116.944423 -17809.461257   9633.429501   -400.031048
PG20 -15479.148993   3872.000577 -21354.722299    516.248557
PG21 -23904.463414   -634.336489 -10701.026071   -332.448395
PG22  11448.283482  21993.264088   9799.130527   -527.443002
PG23  16773.489582   5599.633561  20233.731324   -210.248205
PG24 -19537.754537 -15270.784053 -10040.617813    -55.774096
PG25 -14840.316653  -8189.624917  20326.569982   -651.360479
PG26  -5686.164545  22768.298646  12296.965765    -11.528224
PG27  -5594.571550  19017.934693 -17630.116412    342.018793
PG28  12845.642384 -11130.069956 -19804.611370    746.053481
PG29 -21074.821607    961.023126  16111.863984    370.781981
PG30  20037.447859  -3946.244345 -17051.878265     20.030189
PG31 -11083.361469  11302.000665  21414.695609     91.576123
PG32 -20718.363450  16511.604216    985.292911   -414.995890
PJ01 -17542.370667  33950.626447 -13209.333098   -335.684501
PJ02 -25726.772904  20148.073260  31301.139796      0.041654
PJ03 -34659.112163  23868.295252   2558.843393      0.099080
PR01 -11036.373688  -1959.933592 -22914.060877     32.420566
PR02 -13003.173426  17564.067368 -13078.264130    331.040190
PR03  -6699.480557  24245.906965   4136.652951    144.011648
PR04   3770.800884  16410.638124  19168.626011    277.283033
PR05  11483.931752   -326.143757  22784.082410     11.339650
PR07   6556.007467 -24255.934126  -4473.806501    -47.774508
PR08  -3295.873787 -16986.342039 -18695.086653     21.185936
PR09   9230.472507  -6262.409927 -22923.199824     29.865937
PR10  -4048.059008 -17862.149085 -17723.407226     32.189363
PR11 -15705.485280 -20014.703322  -1404.283006    -41.766627
PR13  -9253.368771   5834.015231  23032.634146    -14.973265
PR14   4003.165350  17981.892549  17672.279162     31.277781
PR15  13499.297658  20758.794181   5936.204104    -16.742996
PR16  18166.793055  10541.124248 -14410.806810    102.320445
PR17  -8104.348445  11375.022193 -21351.191227    166.567892
PR18  10489.037818   8252.700717 -21739.948737     25.112998
PR19  23384.941691   1090.908023 -10123.652995    -59.829280
PR20  22745.667948  -7445.777832   8881.834960   -353.248522
PR21   7577.234333 -11298.128611  21565.453442     -5.050058
PR22 -12510.107865  -7495.579805  20893.114787    -63.344238
PR23 -24759.656996   1438.943129   5965.507148    180.043864
PR24 -21937.689376   8305.626208 -10043.218993   -171.724092
PR26  23184.070040  -7422.027116   7577.006107     49.151620
EOF
